NORAD_CAT_ID,OBJECT_NAME,OBJECT_TYPE,EPOCH,MEAN_MOTION,ECCENTRICITY,INCLINATION,RA_OF_ASC_NODE,ARG_OF_PERICENTER,MEAN_ANOMALY,BSTAR,MEAN_MOTION_DOT,MEAN_MOTION_DDOT,TLE_LINE0,TLE_LINE1,TLE_LINE2,SEMIMAJOR_AXIS,PERIOD,APOGEE,PERIGEE,DECAYED
51774.0,STARLINK-3629,PAYLOAD,2024-04-20 05:28:41,15.08867527,0.0001848,53.2173,189.7423,92.5011,267.6193,0.00039878,6.069e-05,0.0,0 STARLINK-3629,1 51774U 22017G   24111.22825408  .00006069  00000-0  39878-3 0  9995,2 51774  53.2173 189.7423 0001848  92.5011 267.6193 15.08867527120130,6917.796,95.436,540.94,538.383,0.0
51774.0,STARLINK-3629,PAYLOAD,2024-04-20 11:50:14,15.08821822,0.0001821,53.2184,188.5551,57.9651,302.1518,-0.00070363,-0.00011463,0.0,0 STARLINK-3629,1 51774U 22017G   24111.49322818 -.00011463  00000-0 -70363-3 0  9991,2 51774  53.2184 188.5551 0001821  57.9651 302.1518 15.08821822120175,6917.936,95.439,541.061,538.541,0.0
51774.0,STARLINK-3629,PAYLOAD,2024-04-21 10:05:39,15.08830946,0.0001582,53.2171,184.389,104.6049,255.5119,-4.5934e-05,-1.019e-05,0.0,0 STARLINK-3629,1 51774U 22017G   24112.42059507 -.00001019  00000-0 -45934-4 0  9990,2 51774  53.2171 184.3890 0001582 104.6049 255.5119 15.08830946118819,6917.908,95.438,540.867,538.679,0.0
51774.0,STARLINK-3629,PAYLOAD,2024-04-22 05:10:16,15.08853273,0.0001367,53.2169,180.8221,88.7228,271.3921,0.00072249,0.00011233,0.0,0 STARLINK-3629,1 51774U 22017G   24113.21547331  .00011233  00000-0  72249-3 0  9990,2 51774  53.2169 180.8221 0001367  88.7228 271.3921 15.08853273120433,6917.84,95.437,540.65,538.759,0.0
51774.0,STARLINK-3629,PAYLOAD,2024-04-22 09:56:26,15.08875717,0.0001291,53.2167,179.9297,86.5136,273.6004,0.0015374,0.00024288,0.0,0 STARLINK-3629,1 51774U 22017G   24113.41419158  .00024288  00000-0  15374-2 0  9996,2 51774  53.2167 179.9297 0001291  86.5136 273.6004 15.08875717118962,6917.771,95.435,540.529,538.743,0.0
51774.0,STARLINK-3629,PAYLOAD,2024-04-23 11:22:36,15.08853234,0.0001277,53.216,175.1705,96.2537,263.86,0.00047904,7.347e-05,0.0,0 STARLINK-3629,1 51774U 22017G   24114.47402870  .00007347  00000-0  47904-3 0  9998,2 51774  53.2160 175.1705 0001277  96.2537 263.8600 15.08853234120623,6917.84,95.437,540.588,538.822,0.0
51774.0,STARLINK-3629,PAYLOAD,2024-04-24 11:13:24,15.0883674,0.0002009,53.2174,170.713,63.0764,297.0434,0.0008971,0.00014017,0.0,0 STARLINK-3629,1 51774U 22017G   24115.46763999  .00014017  00000-0  89710-3 0  9993,2 51774  53.2174 170.7130 0002009  63.0764 297.0434 15.08836740120772,6917.89,95.438,541.145,538.366,0.0
51774.0,STARLINK-3629,PAYLOAD,2024-04-25 11:04:10,15.08852769,0.0001845,53.2158,166.2544,69.9241,290.195,0.00052201,8.032e-05,0.0,0 STARLINK-3629,1 51774U 22017G   24116.46123489  .00008032  00000-0  52201-3 0  9993,2 51774  53.2158 166.2544 0001845  69.9241 290.1950 15.08852769119421,6917.841,95.437,540.983,538.43,0.0
51774.0,STARLINK-3629,PAYLOAD,2024-04-26 12:30:20,15.08853162,0.0001672,53.2159,161.4898,88.4984,271.6199,0.00030273,4.535e-05,0.0,0 STARLINK-3629,1 51774U 22017G   24117.52106936  .00004535  00000-0  30273-3 0  9998,2 51774  53.2159 161.4898 0001672  88.4984 271.6199 15.08853162121081,6917.84,95.437,540.862,538.548,0.0
51774.0,STARLINK-3629,PAYLOAD,2024-04-26 20:27:16,15.08849798,0.0001552,53.2145,160.0026,95.1124,265.0046,0.00023985,3.532e-05,0.0,0 STARLINK-3629,1 51774U 22017G   24117.85226902  .00003532  00000-0  23985-3 0  9998,2 51774  53.2145 160.0026 0001552  95.1124 265.0046 15.08849798119638,6917.85,95.437,540.789,538.642,0.0
51774.0,STARLINK-3629,PAYLOAD,2024-04-27 02:48:48,15.08846962,0.0001718,53.2146,158.8141,96.2541,263.8647,0.00013856,1.918e-05,0.0,0 STARLINK-3629,1 51774U 22017G   24118.11722957  .00001918  00000-0  13856-3 0  9991,2 51774  53.2146 158.8141 0001718  96.2541 263.8647 15.08846962121176,6917.859,95.437,540.913,538.536,0.0
51774.0,STARLINK-3629,PAYLOAD,2024-04-27 09:10:20,15.08851674,0.0001501,53.2142,157.628,85.3266,274.7897,0.00020164,2.924e-05,0.0,0 STARLINK-3629,1 51774U 22017G   24118.38218650  .00002924  00000-0  20164-3 0  9998,2 51774  53.2142 157.6280 0001501  85.3266 274.7897 15.08851674119717,6917.845,95.437,540.748,538.671,0.0
51774.0,STARLINK-3629,PAYLOAD,2024-04-28 12:11:55,15.0882851,0.0001565,53.2156,152.5694,87.6276,272.4895,-0.00011977,-2.193e-05,0.0,0 STARLINK-3629,1 51774U 22017G   24119.50827977 -.00002193  00000-0 -11977-3 0  9993,2 51774  53.2156 152.5694 0001565  87.6276 272.4895 15.08828510121383,6917.916,95.438,540.863,538.698,0.0
51774.0,STARLINK-3629,PAYLOAD,2024-04-29 05:41:09,15.08835773,0.0001437,53.216,149.3016,93.3174,266.7983,2.8176e-05,1.6e-06,0.0,0 STARLINK-3629,1 51774U 22017G   24120.23691969  .00000160  00000-0  28176-4 0  9995,2 51774  53.2160 149.3016 0001437  93.3174 266.7983 15.08835773121494,6917.893,95.438,540.752,538.764,0.0
51774.0,STARLINK-3629,PAYLOAD,2024-04-29 08:51:55,15.08840229,0.0001339,53.2154,148.7061,97.6665,262.4479,7.7383e-05,9.44e-06,0.0,0 STARLINK-3629,1 51774U 22017G   24120.36939583  .00000944  00000-0  77383-4 0  9990,2 51774  53.2154 148.7061 0001339  97.6665 262.4479 15.08840229120015,6917.88,95.438,540.671,538.818,0.0
51774.0,STARLINK-3629,PAYLOAD,2024-04-29 18:24:14,15.0884252,0.0001388,53.2154,146.9222,97.4804,262.6345,7.1011e-05,8.42e-06,0.0,0 STARLINK-3629,1 51774U 22017G   24120.76683482  .00000842  00000-0  71011-4 0  9997,2 51774  53.2154 146.9222 0001388  97.4804 262.6345 15.08842520120077,6917.873,95.437,540.698,538.777,0.0
51774.0,STARLINK-3629,PAYLOAD,2024-04-30 08:42:42,15.08841983,0.0001439,53.2157,144.2461,100.656,259.4594,0.0002246,3.289e-05,0.0,0 STARLINK-3629,1 51774U 22017G   24121.36299657  .00003289  00000-0  22460-3 0  9992,2 51774  53.2157 144.2461 0001439 100.6560 259.4594 15.08841983121667,6917.874,95.437,540.735,538.744,0.0
51774.0,STARLINK-3629,PAYLOAD,2024-04-30 18:15:01,15.08840574,0.0001441,53.2155,142.4623,100.121,259.9944,0.00013223,1.817e-05,0.0,0 STARLINK-3629,1 51774U 22017G   24121.76043744  .00001817  00000-0  13223-3 0  9992,2 51774  53.2155 142.4623 0001441 100.1210 259.9944 15.08840574120225,6917.879,95.438,540.741,538.747,0.0
51774.0,STARLINK-3629,PAYLOAD,2024-05-01 05:22:43,15.08836036,0.000143,53.2159,140.3805,99.7481,260.3672,-5.1956e-05,-1.115e-05,0.0,0 STARLINK-3629,1 51774U 22017G   24122.22411998 -.00001115  00000-0 -51956-4 0  9993,2 51774  53.2159 140.3805 0001430  99.7481 260.3672 15.08836036121794,6917.893,95.438,540.747,538.768,0.0
51774.0,STARLINK-3629,PAYLOAD,2024-05-01 10:08:53,15.08837145,0.0001442,53.2166,139.4884,101.5981,258.5173,7.0193e-05,8.29e-06,0.0,0 STARLINK-3629,1 51774U 22017G   24122.42284433  .00000829  00000-0  70193-4 0  9990,2 51774  53.2166 139.4884 0001442 101.5981 258.5173 15.08837145120323,6917.889,95.438,540.752,538.757,0.0
51774.0,STARLINK-3629,PAYLOAD,2024-05-01 18:05:49,15.08841506,0.0001418,53.2169,138.001,95.3575,264.7579,6.8913e-05,8.09e-06,0.0,0 STARLINK-3629,1 51774U 22017G   24122.75404080  .00000809  00000-0  68913-4 0  9993,2 51774  53.2169 138.0010 0001418  95.3575 264.7579 15.08841506120374,6917.876,95.437,540.722,538.76,0.0
51774.0,STARLINK-3629,PAYLOAD,2024-05-02 05:13:30,15.08848107,6.94e-05,53.216,135.919,121.9442,238.1618,0.00014625,2.041e-05,0.0,0 STARLINK-3629,1 51774U 22017G   24123.21771083  .00002041  00000-0  14625-3 0  9995,2 51774  53.2160 135.9190 0000694 121.9442 238.1618 15.08848107121941,6917.856,95.437,540.201,539.241,0.0
51774.0,STARLINK-3629,PAYLOAD,2024-05-02 09:59:38,15.08862962,0.0001409,53.2161,135.027,94.6894,265.4259,0.00023221,3.412e-05,0.0,0 STARLINK-3629,1 51774U 22017G   24123.41642082  .00003412  00000-0  23221-3 0  9998,2 51774  53.2161 135.0270 0001409  94.6894 265.4259 15.08862962121976,6917.81,95.436,540.65,538.7,0.0
51774.0,STARLINK-3629,PAYLOAD,2024-05-02 17:56:35,15.08848117,0.0001647,53.2158,133.541,85.7302,274.3878,0.00010909,1.449e-05,0.0,0 STARLINK-3629,1 51774U 22017G   24123.74763064  .00001449  00000-0  10909-3 0  9995,2 51774  53.2158 133.5410 0001647  85.7302 274.3878 15.08848117122029,6917.856,95.437,540.86,538.581,0.0
51774.0,STARLINK-3629,PAYLOAD,2024-05-03 09:50:25,15.08868672,0.0001414,53.215,130.5657,92.3942,267.7212,0.00047821,7.337e-05,0.0,0 STARLINK-3629,1 51774U 22017G   24124.41001688  .00007337  00000-0  47821-3 0  9992,2 51774  53.2150 130.5657 0001414  92.3942 267.7212 15.08868672122124,6917.793,95.436,540.636,538.68,0.0
51774.0,STARLINK-3629,PAYLOAD,2024-05-03 17:47:21,15.08842822,0.000171,53.2148,129.0794,82.9351,277.1836,-4.4132e-05,-9.9e-06,0.0,0 STARLINK-3629,1 51774U 22017G   24124.74122676 -.00000990  00000-0 -44132-4 0  9992,2 51774  53.2148 129.0794 0001710  82.9351 277.1836 15.08842822122175,6917.872,95.437,540.92,538.554,0.0
51774.0,STARLINK-3629,PAYLOAD,2024-05-04 04:55:04,15.08823628,0.0001319,53.2152,126.9982,81.9081,278.2061,-0.00040106,-6.662e-05,0.0,0 STARLINK-3629,1 51774U 22017G   24125.20491234 -.00006662  00000-0 -40106-3 0  9991,2 51774  53.2152 126.9982 0001319  81.9081 278.2061 15.08823628122242,6917.93,95.439,540.708,538.883,0.0
51774.0,STARLINK-3629,PAYLOAD,2024-05-05 09:32:02,15.08829467,0.00015,53.2156,121.6444,86.0152,274.1012,-9.8176e-05,-1.85e-05,0.0,0 STARLINK-3629,1 51774U 22017G   24126.39724731 -.00001850  00000-0 -98176-4 0  9998,2 51774  53.2156 121.6444 0001500  86.0152 274.1012 15.08829467122426,6917.913,95.438,540.815,538.74,0.0
51774.0,STARLINK-3629,PAYLOAD,2024-05-06 09:22:50,15.08838056,0.0001522,53.215,117.1845,76.3186,283.7975,0.00047932,7.348e-05,0.0,0 STARLINK-3629,1 51774U 22017G   24127.39085766  .00007348  00000-0  47932-3 0  9996,2 51774  53.2150 117.1845 0001522  76.3186 283.7975 15.08838056121076,6917.886,95.438,540.804,538.698,0.0
51774.0,STARLINK-3629,PAYLOAD,2024-05-06 15:44:22,15.08845616,0.0001518,53.2152,115.9951,76.5121,283.604,0.00054852,8.454e-05,0.0,0 STARLINK-3629,1 51774U 22017G   24127.65581620  .00008454  00000-0  54852-3 0  9993,2 51774  53.2152 115.9951 0001518  76.5121 283.6040 15.08845616122611,6917.863,95.437,540.778,538.678,0.0
